  private loadSampleSatellites() {
    const sampleSatellites = [
      {
        id: 'iss',
        name: 'International Space Station',
        type: 'scientific' as const,
        tle1: '1 25544U 98067A   25214.09653981  .00010888  00000+0  19653-3 0  9996',
        tle2: '2 25544  51.6345  79.5266 0001736 142.9190 217.1919 15.50282964522285',
        dimensions: { length: 108.5, width: 72.8, height: 20.0 }
      },
      {
        id: 'hubble',
        name: 'Hubble Space Telescope',
        type: 'scientific' as const,
        tle1: '1 20580U 90037B   25214.12345678  .00001234  00000-0  56789-4 0  9991',
        tle2: '2 20580  28.4690 123.4567 0002345  78.9012 281.2345 15.09876543123456',
        dimensions: { length: 13.2, width: 4.2, height: 4.2 }
      },
      {
        id: 'noaa-20',
        name: 'NOAA-20 Weather Satellite',
        type: 'weather' as const,
        tle1: '1 43013U 17073A   25214.23456789  .00000987  00000-0  45678-4 0  9998',
        tle2: '2 43013  98.7890 234.5678 0001987  89.0123 271.1234 14.19876543234567',
        dimensions: { length: 4.2, width: 2.6, height: 2.6 }
      },
      // Starlink constellation - Shell 1
      {
        id: 'starlink-1007',
        name: 'Starlink-1007',
        type: 'communication' as const,
        tle1: '1 44713U 19074A   25214.12345678  .00002182  00000-0  15494-3 0  9999',
        tle2: '2 44713  53.0534 123.4567 0001234  92.4356 267.7077 15.05000000270000',
        dimensions: { length: 2.8, width: 1.4, height: 0.32 }
      },
      {
        id: 'starlink-1019',
        name: 'Starlink-1019',
        type: 'communication' as const,
        tle1: '1 44714U 19074B   25214.13456789  .00002089  00000-0  14876-3 0  9998',
        tle2: '2 44714  53.0535 124.5678 0001345  93.5467 268.8188 15.05000000271111',
        dimensions: { length: 2.8, width: 1.4, height: 0.32 }
      },
      {
        id: 'starlink-1021',
        name: 'Starlink-1021',
        type: 'communication' as const,
        tle1: '1 44715U 19074C   25214.14567890  .00001996  00000-0  14258-3 0  9997',
        tle2: '2 44715  53.0536 125.6789 0001456  94.6578 269.9299 15.05000000272222',
        dimensions: { length: 2.8, width: 1.4, height: 0.32 }
      },
      {
        id: 'starlink-1024',
        name: 'Starlink-1024',
        type: 'communication' as const,
        tle1: '1 44716U 19074D   25214.15678901  .00001903  00000-0  13640-3 0  9996',
        tle2: '2 44716  53.0537 126.7890 0001567  95.7689 271.0410 15.05000000273333',
        dimensions: { length: 2.8, width: 1.4, height: 0.32 }
      },
      {
        id: 'starlink-1030',
        name: 'Starlink-1030',
        type: 'communication' as const,
        tle1: '1 44717U 19074E   25214.16789012  .00001810  00000-0  13022-3 0  9995',
        tle2: '2 44717  53.0538 127.8901 0001678  96.8790 272.1521 15.05000000274444',
        dimensions: { length: 2.8, width: 1.4, height: 0.32 }
      },
      // Starlink Shell 2 - Different inclination
      {
        id: 'starlink-2256',
        name: 'Starlink-2256',
        type: 'communication' as const,
        tle1: '1 47129U 20088A   25214.17890123  .00003456  00000-0  23456-3 0  9994',
        tle2: '2 47129  53.2000 234.5678 0002345  78.9012 281.2345 15.06000000180000'
      },
      {
        id: 'starlink-2272',
        name: 'Starlink-2272',
        type: 'communication' as const,
        tle1: '1 47130U 20088B   25214.18901234  .00003363  00000-0  22838-3 0  9993',
        tle2: '2 47130  53.2001 235.6789 0002456  79.0123 282.3456 15.06000000181111'
      },
      {
        id: 'starlink-2285',
        name: 'Starlink-2285',
        type: 'communication' as const,
        tle1: '1 47131U 20088C   25214.19012345  .00003270  00000-0  22220-3 0  9992',
        tle2: '2 47131  53.2002 236.7890 0002567  80.1234 283.4567 15.06000000182222'
      },
      {
        id: 'starlink-2313',
        name: 'Starlink-2313',
        type: 'communication' as const,
        tle1: '1 47132U 20088D   25214.20123456  .00003177  00000-0  21602-3 0  9991',
        tle2: '2 47132  53.2003 237.8901 0002678  81.2345 284.5678 15.06000000183333'
      },
      // Starlink Shell 3 - Polar orbit
      {
        id: 'starlink-4682',
        name: 'Starlink-4682',
        type: 'communication' as const,
        tle1: '1 53755U 22107A   25214.21234567  .00001674  00000-0  12284-3 0  9990',
        tle2: '2 53755  97.6000 345.6789 0001234  92.4356 267.7077 15.17000000140000'
      },
      {
        id: 'starlink-4683',
        name: 'Starlink-4683',
        type: 'communication' as const,
        tle1: '1 53756U 22107B   25214.22345678  .00001580  00000-0  11890-3 0  9989',
        tle2: '2 53756  97.6001 346.7890 0001456  95.2100 264.9300 15.17000000141111'
      },
      {
        id: 'starlink-4684',
        name: 'Starlink-4684',
        type: 'communication' as const,
        tle1: '1 53757U 22107C   25214.23456789  .00001486  00000-0  11496-3 0  9988',
        tle2: '2 53757  97.6002 347.8901 0001567  96.3211 263.8189 15.17000000142222'
      },
      {
        id: 'starlink-4685',
        name: 'Starlink-4685',
        type: 'communication' as const,
        tle1: '1 53758U 22107D   25214.24567890  .00001392  00000-0  11102-3 0  9987',
        tle2: '2 53758  97.6003 348.9012 0001678  97.4322 262.7078 15.17000000143333'
      },
      // Starlink Generation 2 - Different altitude
      {
        id: 'starlink-gen2-7001',
        name: 'Starlink Gen2-7001',
        type: 'communication' as const,
        tle1: '1 58001U 23001A   25214.25678901  .00004567  00000-0  28901-3 0  9986',
        tle2: '2 58001  53.0000 456.7890 0003456  89.0123 271.1234 15.25000000100000'
      },
      {
        id: 'starlink-gen2-7002',
        name: 'Starlink Gen2-7002',
        type: 'communication' as const,
        tle1: '1 58002U 23001B   25214.26789012  .00004474  00000-0  28283-3 0  9985',
        tle2: '2 58002  53.0001 457.8901 0003567  90.1234 272.2345 15.25000000101111'
      },
      {
        id: 'starlink-gen2-7003',
        name: 'Starlink Gen2-7003',
        type: 'communication' as const,
        tle1: '1 58003U 23001C   25214.27890123  .00004381  00000-0  27665-3 0  9984',
        tle2: '2 58003  53.0002 458.9012 0003678  91.2345 273.3456 15.25000000102222'
      },
      {
        id: 'starlink-gen2-7004',
        name: 'Starlink Gen2-7004',
        type: 'communication' as const,
        tle1: '1 58004U 23001D   25214.28901234  .00004288  00000-0  27047-3 0  9983',
        tle2: '2 58004  53.0003 459.0123 0003789  92.3456 274.4567 15.25000000103333'
      },
      // Starlink Direct-to-Cell satellites
      {
        id: 'starlink-dtc-8001',
        name: 'Starlink DTC-8001',
        type: 'communication' as const,
        tle1: '1 59001U 24001A   25214.29012345  .00005678  00000-0  34567-3 0  9982',
        tle2: '2 59001  53.1000 567.8901 0004567  87.9012 272.2345 15.30000000050000'
      },
      {
        id: 'starlink-dtc-8002',
        name: 'Starlink DTC-8002',
        type: 'communication' as const,
        tle1: '1 59002U 24001B   25214.30123456  .00005585  00000-0  33949-3 0  9981',
        tle2: '2 59002  53.1001 568.9012 0004678  88.0123 273.3456 15.30000000051111'
      },
      // Sentinel-1 SAR satellites
      {
        id: 'sentinel-1a',
        name: 'Sentinel-1A',
        type: 'earth-observation' as const,
        tle1: '1 39634U 14016A   25214.25123456  .00000234  00000-0  56789-4 0  9995',
        tle2: '2 39634  98.1851 167.5432 0001456  78.9012 281.2345 14.59000000580000'
      },
      {
        id: 'sentinel-1b',
        name: 'Sentinel-1B',
        type: 'earth-observation' as const,
        tle1: '1 41456U 16025A   25214.26234567  .00000267  00000-0  62345-4 0  9994',
        tle2: '2 41456  98.1852 287.6543 0001567  79.0123 282.3456 14.59000000480000'
      },
      {
        id: 'sentinel-1c',
        name: 'Sentinel-1C',
        type: 'earth-observation' as const,
        tle1: '1 59051U 24036A   25214.27345678  .00000198  00000-0  54321-4 0  9993',
        tle2: '2 59051  98.1853 47.7654 0001678  80.1234 283.4567 14.59000000080000'
      },
      // Sentinel-2 Earth observation satellites
      {
        id: 'sentinel-2a',
        name: 'Sentinel-2A',
        type: 'earth-observation' as const,
        tle1: '1 40697U 15028A   25214.31234567  .00000456  00000-0  78901-4 0  9980',
        tle2: '2 40697  98.5692 123.4567 0001234  89.0123 271.1234 14.30000000480000'
      },
      {
        id: 'sentinel-2b',
        name: 'Sentinel-2B',
        type: 'earth-observation' as const,
        tle1: '1 42063U 17013A   25214.32345678  .00000523  00000-0  89012-4 0  9979',
        tle2: '2 42063  98.5693 234.5678 0001345  90.1234 272.2345 14.30000000380000'
      },
      {
        id: 'sentinel-2c',
        name: 'Sentinel-2C',
        type: 'earth-observation' as const,
        tle1: '1 59999U 24077A   25214.33456789  .00000467  00000-0  81234-4 0  9978',
        tle2: '2 59999  98.5694 345.6789 0001456  91.2345 273.3456 14.30000000180000'
      },
      // Sentinel-3 oceanography and land monitoring satellites
      {
        id: 'sentinel-3a',
        name: 'Sentinel-3A',
        type: 'earth-observation' as const,
        tle1: '1 41335U 16011A   25214.34567890  .00000123  00000-0  45678-4 0  9993',
        tle2: '2 41335  98.6543 198.7654 0001678  82.3456 277.7654 14.26000000460000'
      },
      {
        id: 'sentinel-3b',
        name: 'Sentinel-3B',
        type: 'earth-observation' as const,
        tle1: '1 43437U 18039A   25214.35678901  .00000156  00000-0  51234-4 0  9992',
        tle2: '2 43437  98.6544 318.8765 0001789  83.4567 278.8765 14.26000000360000'
      },
      {
        id: 'sentinel-3c',
        name: 'Sentinel-3C',
        type: 'earth-observation' as const,
        tle1: '1 49832U 21104A   25214.36789012  .00000189  00000-0  56789-4 0  9991',
        tle2: '2 49832  98.6545 78.9876 0001890  84.5678 279.9876 14.26000000260000'
      },
      // Sentinel-4 geostationary atmospheric monitoring
      {
        id: 'sentinel-4a',
        name: 'Sentinel-4A (MTG-I1)',
        type: 'earth-observation' as const,
        tle1: '1 54866U 22167A   25214.37890123  .00000001  00000-0  10000-4 0  9990',
        tle2: '2 54866  0.0567  85.4321 0000234  45.6789 314.3210 1.00271000010000'
      },
      // Sentinel-5P atmospheric monitoring
      {
        id: 'sentinel-5p',
        name: 'Sentinel-5P (TROPOMI)',
        type: 'earth-observation' as const,
        tle1: '1 42969U 17064A   25214.38901234  .00000345  00000-0  67890-4 0  9989',
        tle2: '2 42969  98.7321 142.5678 0001345  86.7890 273.2109 14.19000000380000'
      },
      // Sentinel-6 oceanography satellites
      {
        id: 'sentinel-6a',
        name: 'Sentinel-6A (Michael Freilich)',
        type: 'earth-observation' as const,
        tle1: '1 46984U 20087A   25214.39012345  .00000278  00000-0  61234-4 0  9988',
        tle2: '2 46984  66.0391 234.5678 0000567  89.0123 271.1234 12.84000000210000'
      },
      {
        id: 'sentinel-6b',
        name: 'Sentinel-6B',
        type: 'earth-observation' as const,
        tle1: '1 52000U 23045A   25214.40123456  .00000312  00000-0  67890-4 0  9987',
        tle2: '2 52000  66.0392 354.6789 0000678  90.1234 272.2345 12.84000000110000'
      }
    ];

